{
    "links": {
        "self": "http://www.neowsapp.com/rest/v1/neo/3591890?api_key=iIulBulltgU6a56xZRHN4H3l9WmuAYTsLGpBGhQ2"
    },
    "id": "3591890",
    "neo_reference_id": "3591890",
    "name": "(2011 YZ62)",
    "designation": "2011 YZ62",
    "nasa_jpl_url": "http://ssd.jpl.nasa.gov/sbdb.cgi?sstr=3591890",
    "absolute_magnitude_h": 25.7,
    "estimated_diameter": {
        "kilometers": {
            "estimated_diameter_min": 0.0192555078,
            "estimated_diameter_max": 0.0430566244
        },
        "meters": {
            "estimated_diameter_min": 19.2555078188,
            "estimated_diameter_max": 43.0566244241
        },
        "miles": {
            "estimated_diameter_min": 0.0119648141,
            "estimated_diameter_max": 0.0267541378
        },
        "feet": {
            "estimated_diameter_min": 63.1742402722,
            "estimated_diameter_max": 141.2618956756
        }
    },
    "is_potentially_hazardous_asteroid": false,
    "close_approach_data": [
        {
            "close_approach_date": "2011-12-21",
            "close_approach_date_full": "2011-Dec-21 12:59",
            "epoch_date_close_approach": 1324472340000,
            "relative_velocity": {
                "kilometers_per_second": "5.1145224973",
                "kilometers_per_hour": "18412.2809902715",
                "miles_per_hour": "11440.6753742051"
            },
            "miss_distance": {
                "astronomical": "0.0654705064",
                "lunar": "25.4680269896",
                "kilometers": "9794248.305261368",
                "miles": "6085863.6916401584"
            },
            "orbiting_body": "Earth"
        },
        {
            "close_approach_date": "2012-04-23",
            "close_approach_date_full": "2012-Apr-23 03:01",
            "epoch_date_close_approach": 1335150060000,
            "relative_velocity": {
                "kilometers_per_second": "12.2022066703",
                "kilometers_per_hour": "43927.9440130181",
                "miles_per_hour": "27295.1161007556"
            },
            "miss_distance": {
                "astronomical": "0.0231756633",
                "lunar": "9.0153330237",
                "kilometers": "3467029.865517171",
                "miles": "2154312.4616361198"
            },
            "orbiting_body": "Mars"
        }
    ],
    "orbital_data": {
        "orbit_id": "6",
        "orbit_determination_date": "2017-04-06 08:51:34",
        "first_observation_date": "2011-12-31",
        "last_observation_date": "2012-01-13",
        "data_arc_in_days": 13,
        "observations_used": 31,
        "orbit_uncertainty": "8",
        "minimum_orbit_intersection": ".0632949",
        "jupiter_tisserand_invariant": "3.769",
        "epoch_osculation": "2455929.5",
        "eccentricity": ".4623549570673599",
        "semi_major_axis": "1.936311749040099",
        "inclination": "1.754068883111079",
        "ascending_node_longitude": "21.96804422246241",
        "orbital_period": "984.1501156504717",
        "perihelion_distance": "1.041048413443639",
        "perihelion_argument": "64.33304751949166",
        "aphelion_distance": "2.831575084636558",
        "perihelion_time": "2455915.180039451381",
        "mean_anomaly": "5.238210833410847",
        "mean_motion": ".3657978536760714",
        "equinox": "J2000",
        "orbit_class": {
            "orbit_class_type": "AMO",
            "orbit_class_description": "Near-Earth asteroid orbits similar to that of 1221 Amor",
            "orbit_class_range": "1.017 AU < q (perihelion) < 1.3 AU"
        }
    },
    "is_sentry_object": false
}